{
  "type": "FeatureCollection",
  "features": [
    {
      "type": "Feature",
      "properties": {
        "norad_id": 30389,
        "name": "FENGYUN 1C DEB",
        "group": "fengyun-1c-debris",
        "lat": -80.49313943146582,
        "lon": 142.13544557956453,
        "alt_km": 748.3015852521676,
        "timestamp": "2025-12-18T08:58:43.687690+00:00",
        "meta_object_name": "FENGYUN 1C DEB",
        "meta_object_id": "1999-025ADC",
        "meta_epoch": "2025-12-17T19:00:42.312960",
        "meta_mean_motion": 14.44133303,
        "meta_eccentricity": 0.00145129,
        "meta_inclination": 98.8388,
        "meta_ra_of_asc_node": 73.2263,
        "meta_arg_of_pericenter": 207.1635,
        "meta_mean_anomaly": 282.3782,
        "meta_ephemeris_type": 0,
        "meta_classification_type": "U",
        "meta_norad_cat_id": 30389,
        "meta_element_set_no": 999,
        "meta_rev_at_epoch": 97859,
        "meta_bstar": 0.0017812166,
        "meta_mean_motion_dot": 6.07e-05,
        "meta_mean_motion_ddot": 0,
        "tle_line1": "1 30389U 99025ADC 25351.79215640  .00006070  00000+0  17812-2 0  9991",
        "tle_line2": "2 30389  98.8388  73.2263 0014512 207.1635 282.3782 14.44133303978595"
      },
      "geometry": {
        "type": "Point",
        "coordinates": [
          142.13544557956453,
          -80.49313943146582
        ]
      }
    },
    {
      "type": "Feature",
      "properties": {
        "norad_id": 30390,
        "name": "FENGYUN 1C DEB",
        "group": "fengyun-1c-debris",
        "lat": -5.585777386375428,
        "lon": -105.21644633928481,
        "alt_km": 757.0931319462288,
        "timestamp": "2025-12-18T08:58:43.687700+00:00",
        "meta_object_name": "FENGYUN 1C DEB",
        "meta_object_id": "1999-025ADD",
        "meta_epoch": "2025-12-17T19:15:07.780896",
        "meta_mean_motion": 14.29776171,
        "meta_eccentricity": 0.0068022,
        "meta_inclination": 98.823,
        "meta_ra_of_asc_node": 75.0746,
        "meta_arg_of_pericenter": 150.0358,
        "meta_mean_anomaly": 332.7899,
        "meta_ephemeris_type": 0,
        "meta_classification_type": "U",
        "meta_norad_cat_id": 30390,
        "meta_element_set_no": 999,
        "meta_rev_at_epoch": 97456,
        "meta_bstar": 0.0013374542,
        "meta_mean_motion_dot": 3.479e-05,
        "meta_mean_motion_ddot": 0,
        "tle_line1": "1 30390U 99025ADD 25351.80217339  .00003479  00000+0  13375-2 0  9992",
        "tle_line2": "2 30390  98.8230  75.0746 0068022 150.0358 332.7899 14.29776171974563"
      },
      "geometry": {
        "type": "Point",
        "coordinates": [
          -105.21644633928481,
          -5.585777386375428
        ]
      }
    },
    {
      "type": "Feature",
      "properties": {
        "norad_id": 30391,
        "name": "FENGYUN 1C DEB",
        "group": "fengyun-1c-debris",
        "lat": -4.702952678865978,
        "lon": -142.42816543625477,
        "alt_km": 816.354231551245,
        "timestamp": "2025-12-18T08:58:43.687711+00:00",
        "meta_object_name": "FENGYUN 1C DEB",
        "meta_object_id": "1999-025ADE",
        "meta_epoch": "2025-12-17T15:43:01.009056",
        "meta_mean_motion": 14.16259214,
        "meta_eccentricity": 0.00716487,
        "meta_inclination": 98.7807,
        "meta_ra_of_asc_node": 37.5912,
        "meta_arg_of_pericenter": 247.9293,
        "meta_mean_anomaly": 232.3913,
        "meta_ephemeris_type": 0,
        "meta_classification_type": "U",
        "meta_norad_cat_id": 30391,
        "meta_element_set_no": 999,
        "meta_rev_at_epoch": 96948,
        "meta_bstar": 0.00095923773,
        "meta_mean_motion_dot": 1.905e-05,
        "meta_mean_motion_ddot": 0,
        "tle_line1": "1 30391U 99025ADE 25351.65487279  .00001905  00000+0  95924-3 0  9991",
        "tle_line2": "2 30391  98.7807  37.5912 0071648 247.9293 232.3913 14.16259214969480"
      },
      "geometry": {
        "type": "Point",
        "coordinates": [
          -142.42816543625477,
          -4.702952678865978
        ]
      }
    },
    {
      "type": "Feature",
      "properties": {
        "norad_id": 30392,
        "name": "FENGYUN 1C DEB",
        "group": "fengyun-1c-debris",
        "lat": -2.028769007431774,
        "lon": 11.12035561171379,
        "alt_km": 745.7768801472521,
        "timestamp": "2025-12-18T08:58:43.687720+00:00",
        "meta_object_name": "FENGYUN 1C DEB",
        "meta_object_id": "1999-025ADF",
        "meta_epoch": "2025-12-17T20:11:31.661088",
        "meta_mean_motion": 14.07464952,
        "meta_eccentricity": 0.01807633,
        "meta_inclination": 98.7851,
        "meta_ra_of_asc_node": 10.2882,
        "meta_arg_of_pericenter": 342.4934,
        "meta_mean_anomaly": 196.9524,
        "meta_ephemeris_type": 0,
        "meta_classification_type": "U",
        "meta_norad_cat_id": 30392,
        "meta_element_set_no": 999,
        "meta_rev_at_epoch": 96742,
        "meta_bstar": 0.00050853886,
        "meta_mean_motion_dot": 9.5e-06,
        "meta_mean_motion_ddot": 0,
        "tle_line1": "1 30392U 99025ADF 25351.84133867  .00000950  00000+0  50854-3 0  9996",
        "tle_line2": "2 30392  98.7851  10.2882 0180763 342.4934 196.9524 14.07464952967428"
      },
      "geometry": {
        "type": "Point",
        "coordinates": [
          11.12035561171379,
          -2.028769007431774
        ]
      }
    },
    {
      "type": "Feature",
      "properties": {
        "norad_id": 30393,
        "name": "FENGYUN 1C DEB",
        "group": "fengyun-1c-debris",
        "lat": -76.92279446352055,
        "lon": 94.18560794159974,
        "alt_km": 862.9052038257751,
        "timestamp": "2025-12-18T08:58:43.687730+00:00",
        "meta_object_name": "FENGYUN 1C DEB",
        "meta_object_id": "1999-025ADG",
        "meta_epoch": "2025-12-17T16:48:10.652256",
        "meta_mean_motion": 13.98988708,
        "meta_eccentricity": 0.00696795,
        "meta_inclination": 99.1648,
        "meta_ra_of_asc_node": 49.4863,
        "meta_arg_of_pericenter": 246.3054,
        "meta_mean_anomaly": 239.9989,
        "meta_ephemeris_type": 0,
        "meta_classification_type": "U",
        "meta_norad_cat_id": 30393,
        "meta_element_set_no": 999,
        "meta_rev_at_epoch": 96399,
        "meta_bstar": 0.00026526323,
        "meta_mean_motion_dot": 3.46e-06,
        "meta_mean_motion_ddot": 0,
        "tle_line1": "1 30393U 99025ADG 25351.70012329  .00000346  00000+0  26526-3 0  9999",
        "tle_line2": "2 30393  99.1648  49.4863 0069679 246.3054 239.9989 13.98988708963998"
      },
      "geometry": {
        "type": "Point",
        "coordinates": [
          94.18560794159974,
          -76.92279446352055
        ]
      }
    },
    {
      "type": "Feature",
      "properties": {
        "norad_id": 30394,
        "name": "FENGYUN 1C DEB",
        "group": "fengyun-1c-debris",
        "lat": -5.029169118542821,
        "lon": -160.0675851952689,
        "alt_km": 921.1715946772783,
        "timestamp": "2025-12-18T08:58:43.687740+00:00",
        "meta_object_name": "FENGYUN 1C DEB",
        "meta_object_id": "1999-025ADH",
        "meta_epoch": "2025-12-17T20:54:18.847872",
        "meta_mean_motion": 13.95790275,
        "meta_eccentricity": 0.00898051,
        "meta_inclination": 99.4345,
        "meta_ra_of_asc_node": 20.2559,
        "meta_arg_of_pericenter": 87.689,
        "meta_mean_anomaly": 89.8107,
        "meta_ephemeris_type": 0,
        "meta_classification_type": "U",
        "meta_norad_cat_id": 30394,
        "meta_element_set_no": 999,
        "meta_rev_at_epoch": 96175,
        "meta_bstar": 8.2546992e-05,
        "meta_mean_motion_dot": 7e-07,
        "meta_mean_motion_ddot": 0,
        "tle_line1": "1 30394U 99025ADH 25351.87105148  .00000070  00000+0  82547-4 0  9990",
        "tle_line2": "2 30394  99.4345  20.2559 0089805  87.6890  89.8107 13.95790275961755"
      },
      "geometry": {
        "type": "Point",
        "coordinates": [
          -160.0675851952689,
          -5.029169118542821
        ]
      }
    },
    {
      "type": "Feature",
      "properties": {
        "norad_id": 30395,
        "name": "FENGYUN 1C DEB",
        "group": "fengyun-1c-debris",
        "lat": -8.033437554486273,
        "lon": 9.04427210267047,
        "alt_km": 798.4239858237679,
        "timestamp": "2025-12-18T08:58:43.687750+00:00",
        "meta_object_name": "FENGYUN 1C DEB",
        "meta_object_id": "1999-025ADJ",
        "meta_epoch": "2025-12-17T20:06:51.580800",
        "meta_mean_motion": 13.96698343,
        "meta_eccentricity": 0.01600984,
        "meta_inclination": 98.9301,
        "meta_ra_of_asc_node": 7.2522,
        "meta_arg_of_pericenter": 12.1172,
        "meta_mean_anomaly": 166.7556,
        "meta_ephemeris_type": 0,
        "meta_classification_type": "U",
        "meta_norad_cat_id": 30395,
        "meta_element_set_no": 999,
        "meta_rev_at_epoch": 96094,
        "meta_bstar": 0.00034264897,
        "meta_mean_motion_dot": 4.87e-06,
        "meta_mean_motion_ddot": 0,
        "tle_line1": "1 30395U 99025ADJ 25351.83809700  .00000487  00000+0  34265-3 0  9997",
        "tle_line2": "2 30395  98.9301   7.2522 0160098  12.1172 166.7556 13.96698343960944"
      },
      "geometry": {
        "type": "Point",
        "coordinates": [
          9.04427210267047,
          -8.033437554486273
        ]
      }
    }
  ]
}